ORDINAL,COMMENT,ORIGINATOR,NORAD_CAT_ID,OBJECT_NAME,OBJECT_TYPE,CLASSIFICATION_TYPE,INTLDES,EPOCH,EPOCH_MICROSECONDS,MEAN_MOTION,ECCENTRICITY,INCLINATION,RA_OF_ASC_NODE,ARG_OF_PERICENTER,MEAN_ANOMALY,EPHEMERIS_TYPE,ELEMENT_SET_NO,REV_AT_EPOCH,BSTAR,MEAN_MOTION_DOT,MEAN_MOTION_DDOT,FILE,TLE_LINE0,TLE_LINE1,TLE_LINE2,OBJECT_ID,OBJECT_NUMBER,SEMIMAJOR_AXIS,PERIOD,APOGEE,PERIGEE,DECAYED
"1","GENERATED VIA SPACETRACK.ORG API","18 SPCS","44910","SJ-20","PAYLOAD","U","19097A","2020-05-04 17:19:59","865024","1.00274218","0.0005764","0.1244","85.4241","90.0728","72.8601","0","999","128","0","-0.00000362","0","2744010","0 SJ-20","1 44910U 19097A   20125.72222066 -.00000362  00000-0  00000+0 0  9992","2 44910   0.1244  85.4241 0005764  90.0728  72.8601  1.00274218  1283","2019-097A","44910","42164.049","1436.062","35810.218","35761.611","0"
"1","GENERATED VIA SPACETRACK.ORG API","18 SPCS","41838","SJ-17","PAYLOAD","U","16065A","2020-05-04 17:15:27","864000","1.00270503","0.0002802","0.1387","87.6239","340.7468","216.7211","0","999","1282","0","-0.00000091","0","2744010","0 SJ-17","1 41838U 16065A   20125.71907250 -.00000091  00000-0  00000+0 0  9993","2 41838   0.1387  87.6239 0002802 340.7468 216.7211  1.00270503 12825","2016-065A","41838","42165.091","1436.115","35798.771","35775.141","0"
"1","GENERATED VIA SPACETRACK.ORG API","18 SPCS","43917","TJS-3 AKM","ROCKET BODY","U","18110C","2020-05-04 16:44:10","921632","1.0027383","0.0001892","0.2089","267.7316","144.8278","120.4364","0","999","494","0","0.00000048","0","2744010","0 TJS-3 AKM","1 43917U 18110C   20125.69734863  .00000048  00000-0  00000+0 0  9992","2 43917   0.2089 267.7316 0001892 144.8278 120.4364  1.00273830  4942","2018-110C","43917","42164.158","1436.067","35794.001","35778.046","0"
"1","GENERATED VIA SPACETRACK.ORG API","18 SPCS","40258","LUCH (OLYMP)","PAYLOAD","U","14058A","2020-05-04 16:44:02","901984","0.99514764","0.0002937","0.0262","261.0299","213.378","8.7078","0","999","2053","0","-0.00000076","0","2744010","0 LUCH (OLYMP)","1 40258U 14058A   20125.69725581 -.00000076  00000-0  00000+0 0  9993","2 40258   0.0262 261.0299 0002937 213.3780   8.7078  0.99514764 20530","2014-058A","40258","42378.296","1447.021","36012.608","35987.715","0"
"1","GENERATED VIA SPACETRACK.ORG API","18 SPCS","28358","INTELSAT 1002","PAYLOAD","U","04022A","2020-05-04 16:41:09","547296","1.00271399","0.0003124","0.014","242.4351","180.0371","49.857","0","999","5822","0","-0.0000002","0","2744003","0 INTELSAT 1002","1 28358U 04022A   20125.69524939 -.00000020  00000-0  00000+0 0  9993","2 28358   0.0140 242.4351 0003124 180.0371  49.8570  1.00271399 58226","2004-022A","28358","42164.840","1436.102","35799.877","35773.532","0"
